#dP2023  1  3  0  0  0.00000000     289 __u+U IGS14 FIT  IAC
## 2243 172800.00000000   300.00000000 59947 0.0000000000000
+  117   C06C07C08C09C10C11C12C13C14C16C19C20C21C22C23C24C25
+        C26C27C28C29C30C32C33C34C36C37C39C40C41C42C43C44C45
+        C46E01E02E03E04E05E07E08E09E10E11E12E13E14E15E18E19
+        E21E24E25E26E27E30E31E33E34E36G01G02G03G04G05G06G07
+        G08G09G10G11G12G13G14G15G16G17G18G19G20G21G22G23G24
+        G25G26G27G29G30G31G32J02J03J04R01R02R03R04R05R07R08
+        R09R11R12R13R14R15R16R17R18R19R20R21R22R24R25  0  0
++         7  7  7  7  7  7  7  7  7  7  6  6  6  6  6  6  6
++         6  6  6  6  6  6  6  6  5  6  6  6  6  6  6  6  6
++         6  4  5  4  4  4  4  4  4  4  4  4  4  4  4  5  4
++         4  4  4  4  4  4  4  4  4  4  3  4  3  4  4  3  3
++         4  4  3  4  3  3  3  3  4  3  4  3  4  3  4  3  3
++         3  4  4  3  3  4  4  9  0 10  8  7  7  7  6  6  7
++         6  7  7  8  7  7  6  7  7  8  8  7  7  7  8  0  0
%c M  cc GPS ccc cccc cccc cccc cccc ccccc ccccc ccccc ccccc
%c cc cc ccc ccc cccc cccc cccc cccc ccccc ccccc ccccc ccccc
%f  1.2500000  1.025000000  0.00000000000  0.000000000000000
%f  0.0000000  0.000000000  0.00000000000  0.000000000000000
%i    0    0    0    0      0      0      0      0         0
%i    0    0    0    0      0      0      0      0         0
/* INFORMATION & ANALYSIS CENTER (IAC)            FINAL DATA
/* S/V CLOCKS ARE ALIGNED TO GNSS TIME                      
/* G:C1WC2W R:C1PC2P E:C1XC5X C:C2IC6I J:C1CC2S             
/* PCV:IGS20_2239 OL/AL:FES2004  NONE     YN ORB:CoN CLK:CoN
*  2023 01 03  4 50  0.00000000
PC06 -11620.293506  23788.666506  32755.526478    208.716998
PC07 -12134.389215  40180.673298  -4728.051308     70.486788
PC08   2207.556286  31964.995959 -27304.175348    526.495125
PC09  -2495.081739  24610.577383  34506.681714    106.206241
PC10  -8086.650063  40571.426586  -9097.990431     39.613299
PC11  24393.415701   4900.058718 -12540.021359   -199.589340
PC12   8520.559291  13836.341694 -22639.965106    377.866254
PC13   6650.413552  34652.662004 -22697.280782    173.990529
PC14  14422.615453   6516.024368  23001.419156    328.941806
PC16 -15105.117021  22794.215441  32208.852012     89.644183
PC19 -17225.657519   4500.390057 -21469.425168   -899.112831
PC20 -10231.906416 -14622.958023 -21436.622945    782.254116
PC21  -3527.530874  26379.245271   8432.967699   -919.952994
PC22 -14666.913803  21933.846792  -9116.817170   -705.925450
PC23  11520.205787 -11633.132060 -22603.091803   -870.856665
PC24  18117.071705  21196.508230   -533.984661   -590.880340
PC25  21192.551180   5288.490974 -17367.434142     49.455681
PC26   6266.786538  22997.714546  14462.758053    -58.911415
PC27   1345.857807 -16172.073134  22688.091287     75.835375
PC28  19731.080385 -13388.593425  14504.791096     54.540971
PC29 -27517.724034   3120.627804   3420.045291     62.302759
PC30 -18144.013573  -9729.112040  18825.182974      1.263646
PC32   3398.019422 -26414.416679  -8315.921315   -661.971856
PC33  17212.035586  -4444.689119  21511.554465   -885.118389
PC34  19216.493573   9084.702182 -18100.286584     75.211492
PC36 -21232.528321  -6447.265374  16944.927074   -721.755968
PC37  -4542.442582 -22794.647747 -15459.866323   -859.659591
PC39 -20022.277997  22430.568917  29483.973149     -1.279732
PC40 -19404.568221  37499.952047  -2191.060454    -11.628639
PC41  14865.074042 -21554.150694   9707.758622   -450.802643
PC42   9554.570004  15820.636028  20954.639716   -919.152115
PC43  27494.013613  -2488.865614  -4171.150900      0.124154
PC44   -910.166647  16376.016607 -22581.446927    165.230460
PC45 -11147.730237  11859.327374  22658.936829    -42.734719
PC46 -18972.279832 -20371.732032   2264.675801    -23.853381
PE01  -8200.278326 -27854.613844   5784.403744   -589.113529
PE02   8411.419061  27699.169979  -6123.044028     12.408141
PE03   5185.371180  17129.811847  23570.191855   -636.143071
PE04 -21036.806470  -1757.512436 -20745.906335    -27.901626
PE05 -14086.917307  22781.925507  12592.105222   -108.890604
PE07  24872.573230 -15029.240065   5617.113608    -12.195889
PE08  20915.828556   1686.460142  20870.492739    -13.202566
PE09 -24862.398896  14976.401996  -5833.357652   -786.540667
PE10 -27776.224273  -4010.295226  -9419.968699   -502.349465
PE11 -23058.299296   3790.147008 -18163.472323    291.506669
PE12 -27652.407613 -10536.487829    -58.612673   -369.665371
PE13  23628.465637  -3123.619814  17567.141233    430.126098
PE14  21537.657961   4229.678496 -17856.457139    102.628637
PE15  27615.484246  10660.493624   -243.651504    696.706012
PE18 -26885.395964  10830.584400   5279.299866   -553.851832
PE19  -2382.832492 -18546.531751 -22946.328552  -3582.811350
PE21   3723.101655 -27067.333981 -11405.736360   -504.035833
PE24 -14929.154692   9759.644203  23601.852005  -1036.932208
PE25  -3937.776407  26905.865441  11680.389674   -596.359394
PE26   4998.985013 -15423.455579  24775.592969  -1862.666279
PE27  14526.757635 -10836.547347 -23407.674741   -478.497943
PE30  16563.504914  12415.372838 -21162.152118  -1129.477266
PE31 -16678.255089 -11641.523197  21513.480372   -512.317710
PE33 -15252.485097 -18067.694100  17813.160938   -454.893952
PE34  15450.795701  18016.070884 -17680.352332    -22.879258
PE36  -5839.938085  14920.607988 -24878.667934   -484.784629
PG01  21788.563222  14622.277945  -5487.844241    229.276941
PG02 -23644.566381 -11459.999304   3579.730072   -629.540916
PG03  12228.113240  17411.941996  15846.482613   -374.049695
PG04  15978.828210   6449.547537  20245.304744    -56.307259
PG05  -5866.356566 -25611.669882  -3582.261738   -110.521968
PG06  12142.205631  -9918.770721  21522.511235    552.078934
PG07  24883.630792   5489.116645  -7900.304636    264.886460
PG08   5725.797852  14470.637081 -21529.813708   -101.741333
PG09  22323.305456  -4336.335730  13683.227579   -242.973637
PG10 -11677.576613  13961.489772 -19059.713846    -18.809660
PG11  -1131.208782 -16775.232251  20580.053693    -70.190667
PG12 -10529.304361 -19202.980206  14825.240878   -323.530950
PG13   3243.223331 -17176.680942 -20116.530088    452.889529
PG14  13551.534153 -11362.080002 -19774.924196    -56.791000
PG15  -8021.069291 -14217.584316 -21373.136593      1.343393
PG16    353.322081  26299.342312   -605.600060   -524.871015
PG17  23043.324867 -13218.444409  -1078.918331    690.681000
PG18 -23910.458539  -3177.444227 -11277.491039    -83.910494
PG19  18021.035771 -16946.828461   9068.428684    259.016616
PG20    239.036391 -25127.685999   8963.572764    459.485812
PG21  17649.773100  15678.805448 -12315.078497    153.148355
PG22 -14684.058495  18523.040522  12363.367705    397.926247
PG23 -14877.056344   1645.602388 -21941.284980      1.439876
PG24 -20069.010120 -15038.341506  -9708.001845    -13.051228
PG25 -14883.269597  -9464.974088  19634.943957    407.883289
PG26  -5504.475845  22818.557494  11990.091095    239.660099
PG27  -6023.986757  18983.422402 -17588.465248    136.674980
PG29 -21488.567011    513.662037  15608.895136   -578.122053
PG30  19425.143440  -4939.679443 -17459.771777   -534.158450
PG31 -11184.366340  11231.454154  21203.118022   -205.194189
PG32 -21102.147306  15921.496188   1041.080536   -351.384964
PJ02 -27332.174302  24761.006641  25485.861446     -0.471423
PJ03 -30383.591734  18443.452791 -17891.735397 999999.999999
PJ04 -21344.888986  33647.706184  -8906.300861    117.264702
PR01 -14376.968008  20354.542678  -5466.103451     20.610279
PR02  -5506.316683  21107.292215  13203.857890    -23.335475
PR03   6787.963271   9570.158295  22684.717629     70.228634
PR04  14848.771988  -7032.420612  19544.334119    170.945116
PR05  15075.187087 -19788.311398   5720.110723    105.585379
PR07  -7175.623412  -8958.194467 -22748.180548     47.297670
PR08 -14904.940350   7212.580766 -19334.788691    -68.832248
PR09  -7299.551083 -22147.897505 -10237.510315     96.484592
PR11 -14645.731192  -6399.003435  19882.261898      9.842150
PR12  -5227.897226  12002.713871  21907.382675     24.061027
PR13   6190.625526  21750.233320  11775.043351    -30.573600
PR14  15094.892109  19338.753303  -7005.785222     24.168926
PR15  14359.956721   5467.138522 -20346.968666     91.951118
PR16   5228.128395 -11670.662255 -22062.756681      9.479794
PR17  18839.834069   7363.386110 -15500.968717    592.428957
PR18  25529.304528    566.603148    185.161105     59.923886
PR19  20053.853437  -5505.226222  14776.837856   -216.861362
PR20    -83.284554 -10372.007255  23317.896220    -85.137982
PR21 -20039.414810  -6872.289469  14233.151823   -362.460364
PR22 -25456.572014  -1157.286105   -921.111721     65.008708
PR24   1149.818118  10834.042407 -23039.833052    137.010496
PR25 -18186.740041  -8600.712331  15704.228268     50.575153
EOF
